{"type": "FeatureCollection", "features": [ {"type": "Feature", "properties": {"norad_id": 33917, "name": "COSMOS 2251 DEB", "group": "cosmos-2251-debris", "lat": -73.62816044584432, "lon": 45.02514664147627, "alt_km": 854.3494532504865, "timestamp": "2025-12-13T15:35:12.497164+00:00", "meta": {"OBJECT_NAME": "COSMOS 2251 DEB", "OBJECT_ID": "1993-036DW", "EPOCH": "2025-12-12T18:58:05.685312", "MEAN_MOTION": 13.69359785, "ECCENTRICITY": 0.0331277, "INCLINATION": 74.1068, "RA_OF_ASC_NODE": 122.3104, "ARG_OF_PERICENTER": 223.2583, "MEAN_ANOMALY": 134.2088, "EPHEMERIS_TYPE": 0, "CLASSIFICATION_TYPE": "U", "NORAD_CAT_ID": 33917, "ELEMENT_SET_NO": 999, "REV_AT_EPOCH": 83734, "BSTAR": 0.0011169859, "MEAN_MOTION_DOT": 1.404e-05, "MEAN_MOTION_DDOT": 0}, "tle": {"line1": "1 33917U 93036DW  25346.79034358  .00001404  00000+0  11170-2 0  9993", "line2": "2 33917  74.1068 122.3104 0331277 223.2583 134.2088 13.69359785837349"}}, "geometry": {"type": "Point", "coordinates": [45.02514664147627, -73.62816044584432]}}, {"type": "Feature", "properties": {"norad_id": 33920, "name": "COSMOS 2251 DEB", "group": "cosmos-2251-debris", "lat": -69.07222448892378, "lon": -111.65706061790546, "alt_km": 680.0730567309547, "timestamp": "2025-12-13T15:35:12.497174+00:00", "meta": {"OBJECT_NAME": "COSMOS 2251 DEB", "OBJECT_ID": "1993-036DZ", "EPOCH": "2025-12-12T21:49:22.389888", "MEAN_MOTION": 14.58282401, "ECCENTRICITY": 0.00382268, "INCLINATION": 74.0611, "RA_OF_ASC_NODE": 298.1055, "ARG_OF_PERICENTER": 304.8818, "MEAN_ANOMALY": 54.8755, "EPHEMERIS_TYPE": 0, "CLASSIFICATION_TYPE": "U", "NORAD_CAT_ID": 33920, "ELEMENT_SET_NO": 999, "REV_AT_EPOCH": 88117, "BSTAR": 0.0028033776, "MEAN_MOTION_DOT": 0.00013086, "MEAN_MOTION_DDOT": 0}, "tle": {"line1": "1 33920U 93036DZ  25346.90928692  .00013086  00000+0  28034-2 0  9999", "line2": "2 33920  74.0611 298.1055 0038226 304.8818  54.8755 14.58282401881175"}}, "geometry": {"type": "Point", "coordinates": [-111.65706061790546, -69.07222448892378]}}, {"type": "Feature", "properties": {"norad_id": 33922, "name": "COSMOS 2251 DEB", "group": "cosmos-2251-debris", "lat": 35.531574896814085, "lon": 157.84502533222334, "alt_km": 737.2783139179355, "timestamp": "2025-12-13T15:35:12.497183+00:00", "meta": {"OBJECT_NAME": "COSMOS 2251 DEB", "OBJECT_ID": "1993-036EB", "EPOCH": "2025-12-12T21:46:05.689056", "MEAN_MOTION": 14.49508426, "ECCENTRICITY": 0.00232984, "INCLINATION": 74.0467, "RA_OF_ASC_NODE": 147.4495, "ARG_OF_PERICENTER": 258.1211, "MEAN_ANOMALY": 226.337, "EPHEMERIS_TYPE": 0, "CLASSIFICATION_TYPE": "U", "NORAD_CAT_ID": 33922, "ELEMENT_SET_NO": 999, "REV_AT_EPOCH": 88580, "BSTAR": 0.00077230316, "MEAN_MOTION_DOT": 2.944e-05, "MEAN_MOTION_DDOT": 0}, "tle": {"line1": "1 33922U 93036EB  25346.90701029  .00002944  00000+0  77230-3 0  9998", "line2": "2 33922  74.0467 147.4495 0023298 258.1211 226.3370 14.49508426885802"}}, "geometry": {"type": "Point", "coordinates": [157.84502533222334, 35.531574896814085]}}, {"type": "Feature", "properties": {"norad_id": 33924, "name": "COSMOS 2251 DEB", "group": "cosmos-2251-debris", "lat": 6.198717501417376, "lon": -89.4643455456977, "alt_km": 924.8465624887413, "timestamp": "2025-12-13T15:35:12.497193+00:00", "meta": {"OBJECT_NAME": "COSMOS 2251 DEB", "OBJECT_ID": "1993-036ED", "EPOCH": "2025-12-12T21:46:30.928224", "MEAN_MOTION": 13.50225734, "ECCENTRICITY": 0.04040337, "INCLINATION": 73.9137, "RA_OF_ASC_NODE": 269.9321, "ARG_OF_PERICENTER": 305.3563, "MEAN_ANOMALY": 51.0402, "EPHEMERIS_TYPE": 0, "CLASSIFICATION_TYPE": "U", "NORAD_CAT_ID": 33924, "ELEMENT_SET_NO": 999, "REV_AT_EPOCH": 82741, "BSTAR": 0.001249204, "MEAN_MOTION_DOT": 1.301e-05, "MEAN_MOTION_DDOT": 0}, "tle": {"line1": "1 33924U 93036ED  25346.90730241  .00001301  00000+0  12492-2 0  9992", "line2": "2 33924  73.9137 269.9321 0404033 305.3563  51.0402 13.50225734827410"}}, "geometry": {"type": "Point", "coordinates": [-89.4643455456977, 6.198717501417376]}}, {"type": "Feature", "properties": {"norad_id": 33928, "name": "COSMOS 2251 DEB", "group": "cosmos-2251-debris", "lat": -50.377802347438646, "lon": -108.76601792118076, "alt_km": 756.5059262022523, "timestamp": "2025-12-13T15:35:12.497203+00:00", "meta": {"OBJECT_NAME": "COSMOS 2251 DEB", "OBJECT_ID": "1993-036EH", "EPOCH": "2025-12-12T21:55:15.152448", "MEAN_MOTION": 14.47405202, "ECCENTRICITY": 0.00614704, "INCLINATION": 73.9261, "RA_OF_ASC_NODE": 52.2385, "ARG_OF_PERICENTER": 346.3076, "MEAN_ANOMALY": 13.6412, "EPHEMERIS_TYPE": 0, "CLASSIFICATION_TYPE": "U", "NORAD_CAT_ID": 33928, "ELEMENT_SET_NO": 999, "REV_AT_EPOCH": 88647, "BSTAR": 0.0003654765, "MEAN_MOTION_DOT": 1.343e-05, "MEAN_MOTION_DDOT": 0}, "tle": {"line1": "1 33928U 93036EH  25346.91336982  .00001343  00000+0  36548-3 0  9996", "line2": "2 33928  73.9261  52.2385 0061470 346.3076  13.6412 14.47405202886476"}}, "geometry": {"type": "Point", "coordinates": [-108.76601792118076, -50.377802347438646]}}, {"type": "Feature", "properties": {"norad_id": 33932, "name": "COSMOS 2251 DEB", "group": "cosmos-2251-debris", "lat": -16.728424335304325, "lon": -50.69559733864722, "alt_km": 750.030716699619, "timestamp": "2025-12-13T15:35:12.497213+00:00", "meta": {"OBJECT_NAME": "COSMOS 2251 DEB", "OBJECT_ID": "1993-036EM", "EPOCH": "2025-12-12T22:58:45.941952", "MEAN_MOTION": 14.38759805, "ECCENTRICITY": 0.00353027, "INCLINATION": 74.0346, "RA_OF_ASC_NODE": 315.516, "ARG_OF_PERICENTER": 31.6712, "MEAN_ANOMALY": 328.6556, "EPHEMERIS_TYPE": 0, "CLASSIFICATION_TYPE": "U", "NORAD_CAT_ID": 33932, "ELEMENT_SET_NO": 999, "REV_AT_EPOCH": 88001, "BSTAR": 0.00079135381, "MEAN_MOTION_DOT": 2.423e-05, "MEAN_MOTION_DDOT": 0}, "tle": {"line1": "1 33932U 93036EM  25346.95747618  .00002423  00000+0  79135-3 0  9996", "line2": "2 33932  74.0346 315.5160 0035302  31.6712 328.6556 14.38759805880012"}}, "geometry": {"type": "Point", "coordinates": [-50.69559733864722, -16.728424335304325]}}, {"type": "Feature", "properties": {"norad_id": 33933, "name": "COSMOS 2251 DEB", "group": "cosmos-2251-debris", "lat": 4.768358373090544, "lon": -122.8842022180414, "alt_km": 797.6289080014794, "timestamp": "2025-12-13T15:35:12.497223+00:00", "meta": {"OBJECT_NAME": "COSMOS 2251 DEB", "OBJECT_ID": "1993-036EN", "EPOCH": "2025-12-12T22:01:53.294016", "MEAN_MOTION": 14.334894, "ECCENTRICITY": 0.00707944, "INCLINATION": 74.0894, "RA_OF_ASC_NODE": 59.8118, "ARG_OF_PERICENTER": 68.1646, "MEAN_ANOMALY": 292.7017, "EPHEMERIS_TYPE": 0, "CLASSIFICATION_TYPE": "U", "NORAD_CAT_ID": 33933, "ELEMENT_SET_NO": 999, "REV_AT_EPOCH": 87787, "BSTAR": 0.00041396649, "MEAN_MOTION_DOT": 1.152e-05, "MEAN_MOTION_DDOT": 0}, "tle": {"line1": "1 33933U 93036EN  25346.91797794  .00001152  00000+0  41397-3 0  9990", "line2": "2 33933  74.0894  59.8118 0070794  68.1646 292.7017 14.33489400877876"}}, "geometry": {"type": "Point", "coordinates": [-122.8842022180414, 4.768358373090544]}}, {"type": "Feature", "properties": {"norad_id": 33934, "name": "COSMOS 2251 DEB", "group": "cosmos-2251-debris", "lat": 13.949864159952652, "lon": 102.91604860346388, "alt_km": 706.4582570236844, "timestamp": "2025-12-13T15:35:12.497233+00:00", "meta": {"OBJECT_NAME": "COSMOS 2251 DEB", "OBJECT_ID": "1993-036EP", "EPOCH": "2025-12-12T18:07:43.284576", "MEAN_MOTION": 14.59111203, "ECCENTRICITY": 0.00156636, "INCLINATION": 74.0377, "RA_OF_ASC_NODE": 100.5418, "ARG_OF_PERICENTER": 224.3594, "MEAN_ANOMALY": 135.6317, "EPHEMERIS_TYPE": 0, "CLASSIFICATION_TYPE": "U", "NORAD_CAT_ID": 33934, "ELEMENT_SET_NO": 999, "REV_AT_EPOCH": 88739, "BSTAR": 0.0015003059, "MEAN_MOTION_DOT": 7.051e-05, "MEAN_MOTION_DDOT": 0}, "tle": {"line1": "1 33934U 93036EP  25346.75536209  .00007051  00000+0  15003-2 0  9993", "line2": "2 33934  74.0377 100.5418 0015663 224.3594 135.6317 14.59111203887399"}}, "geometry": {"type": "Point", "coordinates": [102.91604860346388, 13.949864159952652]}}, {"type": "Feature", "properties": {"norad_id": 33936, "name": "COSMOS 2251 DEB", "group": "cosmos-2251-debris", "lat": -50.55084801141721, "lon": 15.36443025443239, "alt_km": 707.2261679751582, "timestamp": "2025-12-13T15:35:12.497243+00:00", "meta": {"OBJECT_NAME": "COSMOS 2251 DEB", "OBJECT_ID": "1993-036ER", "EPOCH": "2025-12-12T13:31:29.493984", "MEAN_MOTION": 14.60271008, "ECCENTRICITY": 0.00275565, "INCLINATION": 74.019, "RA_OF_ASC_NODE": 37.8205, "ARG_OF_PERICENTER": 193.2971, "MEAN_ANOMALY": 166.7472, "EPHEMERIS_TYPE": 0, "CLASSIFICATION_TYPE": "U", "NORAD_CAT_ID": 33936, "ELEMENT_SET_NO": 999, "REV_AT_EPOCH": 88887, "BSTAR": 0.0010457122, "MEAN_MOTION_DOT": 5.048e-05, "MEAN_MOTION_DDOT": 0}, "tle": {"line1": "1 33936U 93036ER  25346.56353581  .00005048  00000+0  10457-2 0  9996", "line2": "2 33936  74.0190  37.8205 0027556 193.2971 166.7472 14.60271008888870"}}, "geometry": {"type": "Point", "coordinates": [15.36443025443239, -50.55084801141721]}}, {"type": "Feature", "properties": {"norad_id": 33938, "name": "COSMOS 2251 DEB", "group": "cosmos-2251-debris", "lat": 59.87635147641815, "lon": -4.062839404791771, "alt_km": 741.8261502372579, "timestamp": "2025-12-13T15:35:12.497253+00:00", "meta": {"OBJECT_NAME": "COSMOS 2251 DEB", "OBJECT_ID": "1993-036ET", "EPOCH": "2025-12-13T00:48:56.331648", "MEAN_MOTION": 14.4679516, "ECCENTRICITY": 0.0016844, "INCLINATION": 74.045, "RA_OF_ASC_NODE": 206.627, "ARG_OF_PERICENTER": 288.8245, "MEAN_ANOMALY": 222.7202, "EPHEMERIS_TYPE": 0, "CLASSIFICATION_TYPE": "U", "NORAD_CAT_ID": 33938, "ELEMENT_SET_NO": 999, "REV_AT_EPOCH": 88404, "BSTAR": 0.00065693157, "MEAN_MOTION_DOT": 2.357e-05, "MEAN_MOTION_DDOT": 0}, "tle": {"line1": "1 33938U 93036ET  25347.03398532  .00002357  00000+0  65693-3 0  9999", "line2": "2 33938  74.0450 206.6270 0016844 288.8245 222.7202 14.46795160884045"}}, "geometry": {"type": "Point", "coordinates": [-4.062839404791771, 59.87635147641815]}}]}